format  = 'OEF2.0'       ! file format
rectype = '1L'           ! record type (1L/ML)
elem    = 'EQU'          ! type of orbital elements
refsys  = ECLM J2000     ! default reference system
END_OF_HEADER
'va_000239'    57291.958166  1.459760189240  0.285862951  0.187528509 -0.001113636 -0.001969837   34.9415172 22.96  0.15  0
'va_000240'    57291.958166  1.459760642794  0.285863120  0.187528623 -0.001113636 -0.001969838   34.9415303 22.96  0.15  0
'va_000241'    57291.958166  1.459761096689  0.285863289  0.187528737 -0.001113637 -0.001969838   34.9415434 22.96  0.15  0
'va_000242'    57291.958166  1.459761550942  0.285863457  0.187528852 -0.001113638 -0.001969839   34.9415566 22.96  0.15  0
'va_000243'    57291.958166  1.459762005569  0.285863626  0.187528966 -0.001113638 -0.001969840   34.9415697 22.96  0.15  0
'va_000244'    57291.958166  1.459762460586  0.285863796  0.187529081 -0.001113639 -0.001969840   34.9415829 22.96  0.15  0
'va_000245'    57291.958166  1.459762916011  0.285863965  0.187529196 -0.001113639 -0.001969841   34.9415961 22.96  0.15  0
'va_000246'    57291.958166  1.459763371860  0.285864134  0.187529311 -0.001113640 -0.001969842   34.9416092 22.96  0.15  0
'va_000247'    57291.958166  1.459763828150  0.285864304  0.187529426 -0.001113641 -0.001969843   34.9416224 22.96  0.15  0
'va_000248'    57291.958166  1.459764284898  0.285864474  0.187529541 -0.001113641 -0.001969843   34.9416357 22.96  0.15  0
'va_000249'    57291.958166  1.459764742123  0.285864644  0.187529656 -0.001113642 -0.001969844   34.9416489 22.96  0.15  0
'va_000250'    57291.958166  1.459765199839  0.285864814  0.187529771 -0.001113643 -0.001969845   34.9416621 22.96  0.15  0
'va_000251'    57291.958166  1.459765658067  0.285864984  0.187529887 -0.001113643 -0.001969845   34.9416754 22.96  0.15  0
'va_000252'    57291.958166  1.459766116822  0.285865155  0.187530003 -0.001113644 -0.001969846   34.9416886 22.96  0.15  0
'va_000253'    57291.958166  1.459766576122  0.285865325  0.187530118 -0.001113645 -0.001969847   34.9417019 22.96  0.15  0
'va_000254'    57291.958166  1.459767035986  0.285865496  0.187530234 -0.001113645 -0.001969848   34.9417152 22.96  0.15  0
'va_000255'    57291.958166  1.459767496431  0.285865667  0.187530350 -0.001113646 -0.001969848   34.9417285 22.96  0.15  0
'va_000256'    57291.958166  1.459767957476  0.285865839  0.187530466 -0.001113646 -0.001969849   34.9417419 22.96  0.15  0
'va_000257'    57291.958166  1.459768419138  0.285866010  0.187530583 -0.001113647 -0.001969850   34.9417552 22.96  0.15  0
'va_000258'    57291.958166  1.459768881437  0.285866182  0.187530699 -0.001113648 -0.001969850   34.9417686 22.96  0.15  0
'va_000259'    57291.958166  1.459769344390  0.285866354  0.187530816 -0.001113648 -0.001969851   34.9417820 22.96  0.15  0
'va_000260'    57291.958166  1.459769808017  0.285866527  0.187530933 -0.001113649 -0.001969852   34.9417954 22.96  0.15  0
'va_000261'    57291.958166  1.459770272337  0.285866699  0.187531050 -0.001113650 -0.001969853   34.9418088 22.96  0.15  0
'va_000262'    57291.958166  1.459770737368  0.285866872  0.187531167 -0.001113650 -0.001969853   34.9418223 22.96  0.15  0
'va_000263'    57291.958166  1.459771203131  0.285867045  0.187531284 -0.001113651 -0.001969854   34.9418358 22.96  0.15  0
'va_000264'    57291.958166  1.459771669644  0.285867219  0.187531402 -0.001113652 -0.001969855   34.9418493 22.96  0.15  0
'va_000265'    57291.958166  1.459772136928  0.285867392  0.187531520 -0.001113652 -0.001969855   34.9418628 22.96  0.15  0
'va_000266'    57291.958166  1.459772605002  0.285867566  0.187531638 -0.001113653 -0.001969856   34.9418763 22.96  0.15  0
'va_000267'    57291.958166  1.459773073887  0.285867741  0.187531756 -0.001113654 -0.001969857   34.9418899 22.96  0.15  0
'va_000268'    57291.958166  1.459773543603  0.285867915  0.187531874 -0.001113654 -0.001969858   34.9419035 22.96  0.15  0
'va_000269'    57291.958166  1.459774014170  0.285868090  0.187531993 -0.001113655 -0.001969858   34.9419171 22.96  0.15  0
'va_000270'    57291.958166  1.459774485610  0.285868265  0.187532111 -0.001113655 -0.001969859   34.9419307 22.96  0.15  0
'va_000271'    57291.958166  1.459774957944  0.285868441  0.187532230 -0.001113656 -0.001969860   34.9419444 22.96  0.15  0
'va_000272'    57291.958166  1.459775431193  0.285868617  0.187532350 -0.001113657 -0.001969860   34.9419581 22.96  0.15  0
'va_000273'    57291.958166  1.459775905378  0.285868793  0.187532469 -0.001113657 -0.001969861   34.9419718 22.96  0.15  0
'va_000274'    57291.958166  1.459776380523  0.285868970  0.187532589 -0.001113658 -0.001969862   34.9419855 22.96  0.15  0
'va_000275'    57291.958166  1.459776856648  0.285869147  0.187532709 -0.001113659 -0.001969863   34.9419993 22.96  0.15  0
'va_000276'    57291.958166  1.459777333776  0.285869324  0.187532829 -0.001113659 -0.001969863   34.9420131 22.96  0.15  0
'va_000277'    57291.958166  1.459777811931  0.285869502  0.187532950 -0.001113660 -0.001969864   34.9420269 22.96  0.15  0
'va_000278'    57291.958166  1.459778291134  0.285869680  0.187533070 -0.001113661 -0.001969865   34.9420408 22.96  0.15  0
'va_000279'    57291.958166  1.459778771411  0.285869858  0.187533191 -0.001113661 -0.001969866   34.9420547 22.96  0.15  0
'va_000280'    57291.958166  1.459779252784  0.285870037  0.187533313 -0.001113662 -0.001969866   34.9420686 22.96  0.15  0
'va_000281'    57291.958166  1.459779735277  0.285870217  0.187533434 -0.001113663 -0.001969867   34.9420825 22.96  0.15  0
'va_000282'    57291.958166  1.459780218915  0.285870396  0.187533556 -0.001113663 -0.001969868   34.9420965 22.96  0.15  0
'va_000283'    57291.958166  1.459780703722  0.285870577  0.187533678 -0.001113664 -0.001969869   34.9421106 22.96  0.15  0
'va_000284'    57291.958166  1.459781189725  0.285870757  0.187533801 -0.001113665 -0.001969869   34.9421246 22.96  0.15  0
'va_000285'    57291.958166  1.459781676947  0.285870938  0.187533924 -0.001113665 -0.001969870   34.9421387 22.96  0.15  0
'va_000286'    57291.958166  1.459782165416  0.285871120  0.187534047 -0.001113666 -0.001969871   34.9421528 22.96  0.15  0
'va_000287'    57291.958166  1.459782655157  0.285871302  0.187534170 -0.001113667 -0.001969872   34.9421670 22.96  0.15  0
'va_000288'    57291.958166  1.459783146198  0.285871485  0.187534294 -0.001113667 -0.001969872   34.9421812 22.96  0.15  0
'va_000289'    57291.958166  1.459783638564  0.285871668  0.187534418 -0.001113668 -0.001969873   34.9421954 22.96  0.15  0
'va_000290'    57291.958166  1.459784132285  0.285871851  0.187534542 -0.001113669 -0.001969874   34.9422097 22.96  0.15  0
'va_000291'    57291.958166  1.459784627387  0.285872035  0.187534667 -0.001113670 -0.001969875   34.9422240 22.96  0.15  0
'va_000292'    57291.958166  1.459785123900  0.285872220  0.187534792 -0.001113670 -0.001969875   34.9422384 22.96  0.15  0
'va_000293'    57291.958166  1.459785621852  0.285872405  0.187534918 -0.001113671 -0.001969876   34.9422528 22.96  0.15  0
'va_000294'    57291.958166  1.459786121273  0.285872590  0.187535044 -0.001113672 -0.001969877   34.9422673 22.96  0.15  0
'va_000295'    57291.958166  1.459786622192  0.285872777  0.187535170 -0.001113672 -0.001969878   34.9422817 22.96  0.15  0
'va_000296'    57291.958166  1.459787124641  0.285872963  0.187535296 -0.001113673 -0.001969879   34.9422963 22.96  0.15  0
'va_000297'    57291.958166  1.459787628650  0.285873151  0.187535423 -0.001113674 -0.001969879   34.9423109 22.96  0.15  0
'va_000298'    57291.958166  1.459788134251  0.285873339  0.187535551 -0.001113674 -0.001969880   34.9423255 22.96  0.15  0
'va_000299'    57291.958166  1.459788641476  0.285873527  0.187535679 -0.001113675 -0.001969881   34.9423401 22.96  0.15  0
'va_000300'    57291.958166  1.459789150358  0.285873716  0.187535807 -0.001113676 -0.001969882   34.9423549 22.96  0.15  0
'va_000301'    57291.958166  1.459789660930  0.285873906  0.187535936 -0.001113676 -0.001969882   34.9423696 22.96  0.15  0
'va_000302'    57291.958166  1.459790173226  0.285874097  0.187536065 -0.001113677 -0.001969883   34.9423845 22.96  0.15  0
'va_000303'    57291.958166  1.459790687281  0.285874288  0.187536194 -0.001113678 -0.001969884   34.9423993 22.96  0.15  0
'va_000304'    57291.958166  1.459791203129  0.285874479  0.187536324 -0.001113679 -0.001969885   34.9424142 22.96  0.15  0
'va_000305'    57291.958166  1.459791720809  0.285874672  0.187536455 -0.001113679 -0.001969886   34.9424292 22.96  0.15  0
'va_000306'    57291.958166  1.459792240354  0.285874865  0.187536586 -0.001113680 -0.001969886   34.9424442 22.96  0.15  0
'va_000307'    57291.958166  1.459792761805  0.285875059  0.187536717 -0.001113681 -0.001969887   34.9424593 22.96  0.15  0
'va_000308'    57291.958166  1.459793285197  0.285875253  0.187536849 -0.001113681 -0.001969888   34.9424745 22.96  0.15  0
'va_000309'    57291.958166  1.459793810572  0.285875449  0.187536981 -0.001113682 -0.001969889   34.9424897 22.96  0.15  0
'va_000310'    57291.958166  1.459794337968  0.285875645  0.187537114 -0.001113683 -0.001969890   34.9425049 22.96  0.15  0
'va_000311'    57291.958166  1.459794867426  0.285875841  0.187537248 -0.001113684 -0.001969890   34.9425202 22.96  0.15  0
'va_000312'    57291.958166  1.459795398987  0.285876039  0.187537382 -0.001113684 -0.001969891   34.9425356 22.96  0.15  0
'va_000313'    57291.958166  1.459795932695  0.285876237  0.187537516 -0.001113685 -0.001969892   34.9425510 22.96  0.15  0
'va_000314'    57291.958166  1.459796468592  0.285876436  0.187537651 -0.001113686 -0.001969893   34.9425665 22.96  0.15  0
'va_000315'    57291.958166  1.459797006722  0.285876637  0.187537787 -0.001113687 -0.001969894   34.9425821 22.96  0.15  0
'va_000316'    57291.958166  1.459797547132  0.285876837  0.187537923 -0.001113687 -0.001969895   34.9425977 22.96  0.15  0
'va_000317'    57291.958166  1.459798089868  0.285877039  0.187538060 -0.001113688 -0.001969895   34.9426134 22.96  0.15  0
